{"type":"FeatureCollection","features":[{"type":"Feature","properties":{"KyHieuLoaiDat":"CONG","DienTich":3200.5,"TenChuSoHuu":"UBND Phường Tăng Nhơn Phú","SoTo":"21","SoThua":"1","TenConDuong":"Lê Văn Việt","TenXaMoi":"Phường Tăng Nhơn Phú","GiaiDoanQuyHoach":"2021-2030","ThongTinQuyHoach":"Đất công cộng - Trụ sở cơ quan","DMMucDichSuDungDat":"Đất trụ sở cơ quan"},"geometry":{"type":"Polygon","coordinates":[[[106.78875251495656,10.844473971739431],[106.79089651533124,10.844458451507982],[106.79079397190299,10.846256088053186],[106.78878648895781,10.846205442647593],[106.7887723622729,10.844361785521125]]]}},{"type":"Feature","properties":{"KyHieuLoaiDat":"ODT","DienTich":476.1,"TenChuSoHuu":"Nguyễn Văn An","SoTo":"20","SoThua":"108","TenConDuong":"Đường Số 6","TenXaMoi":"Phường Tăng Nhơn Phú","GiaiDoanQuyHoach":"2021-2025","ThongTinQuyHoach":"Đất ở đô thị - QHPK 1/2000","DMMucDichSuDungDat":"Đất ở tại đô thị"},"geometry":{"type":"Polygon","coordinates":[[[106.78978355962573,10.845122288512568],[106.79125051148448,10.845174750918481],[106.79119105267333,10.846489728512799],[106.78968286661917,10.846459777643187],[106.78978035803439,10.845267878669196]]]}},{"type":"Feature","properties":{"KyHieuLoaiDat":"ODT","DienTich":320.5,"TenChuSoHuu":"Trần Thị Bình","SoTo":"20","SoThua":"109","TenConDuong":"Đường Số 6","TenXaMoi":"Phường Tăng Nhơn Phú","GiaiDoanQuyHoach":"2021-2025","ThongTinQuyHoach":"Đất ở đô thị - QHPK 1/2000","DMMucDichSuDungDat":"Đất ở tại đô thị"},"geometry":{"type":"Polygon","coordinates":[[[106.79036608665331,10.844345254236048],[106.79159642571418,10.844395501285113],[106.79154348944938,10.84537628124172],[106.79030762078462,10.845270321314258],[106.79049111198553,10.844279947990996]]]}},{"type":"Feature","properties":{"KyHieuLoaiDat":"ODT","DienTich":280.3,"TenChuSoHuu":"Lê Văn Cường","SoTo":"20","SoThua":"112","TenConDuong":"Đường Số 8","TenXaMoi":"Phường Tăng Nhơn Phú","GiaiDoanQuyHoach":"2021-2025","ThongTinQuyHoach":"Đất ở đô thị - QHPK 1/2000","DMMucDichSuDungDat":"Đất ở tại đô thị"},"geometry":{"type":"Polygon","coordinates":[[[106.78956326993129,10.843649471015668],[106.79057112272874,10.843579203355427],[106.79055488606024,10.844770584022392],[106.78957358926556,10.844746634918438],[106.78950763538296,10.843718231443049]]]}},{"type":"Feature","properties":{"KyHieuLoaiDat":"TM-DV","DienTich":4500.8,"TenChuSoHuu":"Công ty TNHH Thương Mại ABC","SoTo":"22","SoThua":"15","TenConDuong":"Lê Văn Việt","TenXaMoi":"Phường Tăng Nhơn Phú","GiaiDoanQuyHoach":"2021-2030","ThongTinQuyHoach":"Đất thương mại dịch vụ","DMMucDichSuDungDat":"Đất thương mại dịch vụ"},"geometry":{"type":"Polygon","coordinates":[[[106.78719263707175,10.843172650360803],[106.78972235385095,10.843313303579519],[106.78977867026713,10.844775026436684],[106.78724638611078,10.84484210486847],[106.78715096861269,10.843319580678434]]]}},{"type":"Feature","properties":{"KyHieuLoaiDat":"TM-DV","DienTich":2800,"TenChuSoHuu":"Ban Quản lý Chợ Tăng Nhơn Phú","SoTo":"21","SoThua":"30","TenConDuong":"Đường Số 4","TenXaMoi":"Phường Tăng Nhơn Phú","GiaiDoanQuyHoach":"2021-2030","ThongTinQuyHoach":"Đất chợ - QHPK 1/2000","DMMucDichSuDungDat":"Đất thương mại dịch vụ"},"geometry":{"type":"Polygon","coordinates":[[[106.78821514329418,10.8442164522856],[106.79009515968558,10.844347580786064],[106.79009558655613,10.845641825793983],[106.78833317479841,10.845693226239893],[106.78839152701273,10.84423128458657]]]}},{"type":"Feature","properties":{"KyHieuLoaiDat":"ODT","DienTich":380.2,"TenChuSoHuu":"Phạm Văn Dũng","SoTo":"23","SoThua":"80","TenConDuong":"Đường Số 11","TenXaMoi":"Phường Tăng Nhơn Phú","GiaiDoanQuyHoach":"2021-2025","ThongTinQuyHoach":"Đất ở đô thị - QHPK 1/2000","DMMucDichSuDungDat":"Đất ở tại đô thị"},"geometry":{"type":"Polygon","coordinates":[[[106.79112057848046,10.846126892586069],[106.79264052803626,10.84616517187384],[106.7925273157803,10.847456749448025],[106.79106103489737,10.84745435982972],[106.7909814234588,10.846263364845209]]]}},{"type":"Feature","properties":{"KyHieuLoaiDat":"ODT","DienTich":250,"TenChuSoHuu":"Đặng Minh Tuấn","SoTo":"23","SoThua":"82","TenConDuong":"Đường Số 12","TenXaMoi":"Phường Tăng Nhơn Phú","GiaiDoanQuyHoach":"2025-2030","ThongTinQuyHoach":"Đất ở đô thị - QHPK mới","DMMucDichSuDungDat":"Đất ở tại đô thị"},"geometry":{"type":"Polygon","coordinates":[[[106.79155859138255,10.846739547280361],[106.79270397248244,10.846620200268767],[106.79289135882634,10.847648625274292],[106.79161798072734,10.84766213586095],[106.79157810012654,10.846687737568859]]]}},{"type":"Feature","properties":{"KyHieuLoaiDat":"GD-ĐT","DienTich":8500,"TenChuSoHuu":"Trường THCS Tăng Nhơn Phú","SoTo":"24","SoThua":"1","TenConDuong":"Đường Số 10","TenXaMoi":"Phường Tăng Nhơn Phú","GiaiDoanQuyHoach":"2021-2030","ThongTinQuyHoach":"Đất giáo dục - Quy hoạch chung","DMMucDichSuDungDat":"Đất giáo dục đào tạo"},"geometry":{"type":"Polygon","coordinates":[[[106.78996866758507,10.845863528763408],[106.79301048992981,10.845849792191716],[106.7930109452781,10.848006202929307],[106.78990377797011,10.848054768926392],[106.79006596664402,10.845939953616384]]]}},{"type":"Feature","properties":{"KyHieuLoaiDat":"GD-ĐT","DienTich":6200,"TenChuSoHuu":"Trường Tiểu học Tăng Nhơn Phú","SoTo":"24","SoThua":"5","TenConDuong":"Đường Số 10","TenXaMoi":"Phường Tăng Nhơn Phú","GiaiDoanQuyHoach":"2021-2030","ThongTinQuyHoach":"Đất giáo dục - Quy hoạch chung","DMMucDichSuDungDat":"Đất giáo dục đào tạo"},"geometry":{"type":"Polygon","coordinates":[[[106.79172025879014,10.847000776658414],[106.79426386013708,10.847084097790244],[106.79422144773318,10.848990190023525],[106.79176530503591,10.848955494491005],[106.79172821735597,10.846928473520968]]]}},{"type":"Feature","properties":{"KyHieuLoaiDat":"ODT","DienTich":290.5,"TenChuSoHuu":"Võ Thị Hương","SoTo":"25","SoThua":"55","TenConDuong":"Đường Số 4","TenXaMoi":"Phường Tăng Nhơn Phú","GiaiDoanQuyHoach":"2021-2025","ThongTinQuyHoach":"Đất ở đô thị - QHPK 1/2000","DMMucDichSuDungDat":"Đất ở tại đô thị"},"geometry":{"type":"Polygon","coordinates":[[[106.78943560845089,10.842476604233301],[106.7905694416366,10.842503376209617],[106.7905605266528,10.843625839070253],[106.78944994163696,10.84351781366544],[106.78927866281398,10.842404064445878]]]}},{"type":"Feature","properties":{"KyHieuLoaiDat":"ODT","DienTich":180,"TenChuSoHuu":"Lý Thị Mai","SoTo":"25","SoThua":"58","TenConDuong":"Đường Số 3","TenXaMoi":"Phường Tăng Nhơn Phú","GiaiDoanQuyHoach":"2021-2025","ThongTinQuyHoach":"Đất ở đô thị - QHPK 1/2000","DMMucDichSuDungDat":"Đất ở tại đô thị"},"geometry":{"type":"Polygon","coordinates":[[[106.7880092699746,10.84196027945315],[106.7889898315359,10.842055842732698],[106.7889773110352,10.842963056324908],[106.7879545722596,10.842939031771254],[106.78795461578832,10.841974770955336]]]}},{"type":"Feature","properties":{"KyHieuLoaiDat":"CAY_XANH","DienTich":12000,"TenChuSoHuu":"Ban Quản lý Công viên","SoTo":"26","SoThua":"10","TenConDuong":"Đường Số 3","TenXaMoi":"Phường Tăng Nhơn Phú","GiaiDoanQuyHoach":"2021-2030","ThongTinQuyHoach":"Đất cây xanh - Công viên khu phố","DMMucDichSuDungDat":"Đất cây xanh"},"geometry":{"type":"Polygon","coordinates":[[[106.78720495048427,10.841607227726339],[106.7908065545864,10.841527972445164],[106.79071811239687,10.843986931135845],[106.78726474957266,10.843998150670531],[106.78733383346244,10.841484701749536]]]}},{"type":"Feature","properties":{"KyHieuLoaiDat":"ODT","DienTich":250,"TenChuSoHuu":"Đặng Minh Tuấn","SoTo":"27","SoThua":"33","TenConDuong":"Đường Số 14","TenXaMoi":"Phường Tăng Nhơn Phú","GiaiDoanQuyHoach":"2021-2025","ThongTinQuyHoach":"Đất ở đô thị - QHPK 1/2000","DMMucDichSuDungDat":"Đất ở tại đô thị"},"geometry":{"type":"Polygon","coordinates":[[[106.79196806845815,10.844545578414305],[106.79313822061697,10.844527196256113],[106.79306406086124,10.845599977160692],[106.79199202586075,10.845543989651139],[106.79193553340146,10.844563962907056]]]}},{"type":"Feature","properties":{"KyHieuLoaiDat":"ODT","DienTich":420,"TenChuSoHuu":"Ngô Thị Lan","SoTo":"27","SoThua":"34","TenConDuong":"Đường Số 14","TenXaMoi":"Phường Tăng Nhơn Phú","GiaiDoanQuyHoach":"2021-2025","ThongTinQuyHoach":"Đất ở đô thị - QHPK 1/2000","DMMucDichSuDungDat":"Đất ở tại đô thị"},"geometry":{"type":"Polygon","coordinates":[[[106.79235469340634,10.84487096653702],[106.79368688030131,10.844812477617905],[106.79363836761283,10.846061356125812],[106.7922469526354,10.846173780743486],[106.79221574463755,10.84497891760313]]]}},{"type":"Feature","properties":{"KyHieuLoaiDat":"ODT","DienTich":500,"TenChuSoHuu":"Hoàng Văn Phúc","SoTo":"27","SoThua":"88","TenConDuong":"Đường Số 15","TenXaMoi":"Phường Tăng Nhơn Phú","GiaiDoanQuyHoach":"2025-2030","ThongTinQuyHoach":"Đất ở đô thị - QHPK mới","DMMucDichSuDungDat":"Đất ở tại đô thị"},"geometry":{"type":"Polygon","coordinates":[[[106.79252799337682,10.845712177396683],[106.79454568835108,10.84571384622197],[106.7944540006562,10.84716016357184],[106.79248922663275,10.847283189769584],[106.79242246426982,10.845713655254967]]]}},{"type":"Feature","properties":{"KyHieuLoaiDat":"Y_TE","DienTich":3800,"TenChuSoHuu":"Trạm Y tế Phường Tăng Nhơn Phú","SoTo":"29","SoThua":"5","TenConDuong":"Đường Số 2","TenXaMoi":"Phường Tăng Nhơn Phú","GiaiDoanQuyHoach":"2021-2030","ThongTinQuyHoach":"Đất y tế - Trạm y tế phường","DMMucDichSuDungDat":"Đất y tế"},"geometry":{"type":"Polygon","coordinates":[[[106.78645237116949,10.84367437753205],[106.78840383798115,10.8435083794312],[106.78850918711476,10.845423418143065],[106.78656910388005,10.845434419057659],[106.78647958929702,10.843537207052712]]]}},{"type":"Feature","properties":{"KyHieuLoaiDat":"ODT","DienTich":200,"TenChuSoHuu":"Bùi Quốc Hùng","SoTo":"28","SoThua":"72","TenConDuong":"Đường Số 1","TenXaMoi":"Phường Tăng Nhơn Phú","GiaiDoanQuyHoach":"2021-2025","ThongTinQuyHoach":"Đất ở đô thị - QHPK 1/2000","DMMucDichSuDungDat":"Đất ở tại đô thị"},"geometry":{"type":"Polygon","coordinates":[[[106.78761870549596,10.84494950342244],[106.78877266015911,10.844960034648935],[106.78873568523494,10.845916847633282],[106.78760609745383,10.846047627417619],[106.7877141758957,10.84497389710995]]]}},{"type":"Feature","properties":{"KyHieuLoaiDat":"ODT","DienTich":350,"TenChuSoHuu":"Nguyễn Thị Kim","SoTo":"28","SoThua":"75","TenConDuong":"Đường Số 2","TenXaMoi":"Phường Tăng Nhơn Phú","GiaiDoanQuyHoach":"2021-2025","ThongTinQuyHoach":"Đất ở đô thị - QHPK 1/2000","DMMucDichSuDungDat":"Đất ở tại đô thị"},"geometry":{"type":"Polygon","coordinates":[[[106.78699042716018,10.845317407476472],[106.78854022672982,10.845350376132624],[106.78864622680621,10.846640967585065],[106.78713571490376,10.84660625865029],[106.78701401198398,10.845391291825214]]]}},{"type":"Feature","properties":{"KyHieuLoaiDat":"ODT","DienTich":220,"TenChuSoHuu":"Trần Văn Minh","SoTo":"20","SoThua":"115","TenConDuong":"Đường Số 7","TenXaMoi":"Phường Tăng Nhơn Phú","GiaiDoanQuyHoach":"2021-2025","ThongTinQuyHoach":"Đất ở đô thị - QHPK 1/2000","DMMucDichSuDungDat":"Đất ở tại đô thị"},"geometry":{"type":"Polygon","coordinates":[[[106.79025881439284,10.844990626282577],[106.79135519892303,10.844908020058332],[106.7913110747042,10.845706021273497],[106.79020926659129,10.845752311856916],[106.79025563305748,10.84481301354369]]]}},{"type":"Feature","properties":{"KyHieuLoaiDat":"ODT","DienTich":310,"TenChuSoHuu":"Phan Thị Hoa","SoTo":"20","SoThua":"118","TenConDuong":"Đường Số 9","TenXaMoi":"Phường Tăng Nhơn Phú","GiaiDoanQuyHoach":"2021-2025","ThongTinQuyHoach":"Đất ở đô thị - QHPK 1/2000","DMMucDichSuDungDat":"Đất ở tại đô thị"},"geometry":{"type":"Polygon","coordinates":[[[106.79077906293149,10.844063476899718],[106.7916936203066,10.844091722853848],[106.79162452308218,10.845025794465375],[106.79066488864248,10.845021163854852],[106.7906770388762,10.844080263045356]]]}},{"type":"Feature","properties":{"KyHieuLoaiDat":"ODT","DienTich":360,"TenChuSoHuu":"Đỗ Thanh Tùng","SoTo":"23","SoThua":"90","TenConDuong":"Đường Số 13","TenXaMoi":"Phường Tăng Nhơn Phú","GiaiDoanQuyHoach":"2021-2025","ThongTinQuyHoach":"Đất ở đô thị - QHPK 1/2000","DMMucDichSuDungDat":"Đất ở tại đô thị"},"geometry":{"type":"Polygon","coordinates":[[[106.78939535434229,10.846985050295332],[106.79055861693304,10.847047224655343],[106.79065001404803,10.84806634527823],[106.78931287634416,10.847930634114485],[106.7893089810189,10.847063650512434]]]}},{"type":"Feature","properties":{"KyHieuLoaiDat":"ODT","DienTich":190,"TenChuSoHuu":"Mai Văn Sơn","SoTo":"23","SoThua":"92","TenConDuong":"Đường Số 13","TenXaMoi":"Phường Tăng Nhơn Phú","GiaiDoanQuyHoach":"2025-2030","ThongTinQuyHoach":"Đất ở đô thị - QHPK mới","DMMucDichSuDungDat":"Đất ở tại đô thị"},"geometry":{"type":"Polygon","coordinates":[[[106.7900860897828,10.847625146618435],[106.79109622663755,10.847695983615681],[106.79106258585024,10.848482231754394],[106.79008709175196,10.848330652859904],[106.79006790190027,10.847555723040413]]]}},{"type":"Feature","properties":{"KyHieuLoaiDat":"ODT","DienTich":440,"TenChuSoHuu":"Lâm Quốc Bảo","SoTo":"27","SoThua":"100","TenConDuong":"Đường Số 14","TenXaMoi":"Phường Tăng Nhơn Phú","GiaiDoanQuyHoach":"2021-2025","ThongTinQuyHoach":"Đất ở đô thị - QHPK 1/2000","DMMucDichSuDungDat":"Đất ở tại đô thị"},"geometry":{"type":"Polygon","coordinates":[[[106.79251524649284,10.842813490093274],[106.79395860810966,10.842943793228484],[106.79403824428952,10.844117510720956],[106.79244723720801,10.844005971739977],[106.79249545349498,10.842965650234513]]]}},{"type":"Feature","properties":{"KyHieuLoaiDat":"ODT","DienTich":200,"TenChuSoHuu":"Hà Thị Xuân","SoTo":"27","SoThua":"102","TenConDuong":"Đường Số 16","TenXaMoi":"Phường Tăng Nhơn Phú","GiaiDoanQuyHoach":"2021-2025","ThongTinQuyHoach":"Đất ở đô thị - QHPK 1/2000","DMMucDichSuDungDat":"Đất ở tại đô thị"},"geometry":{"type":"Polygon","coordinates":[[[106.7922386658042,10.842532758243063],[106.79336109293314,10.842422665678978],[106.79325924655431,10.843565232241682],[106.79232773731306,10.843409139453929],[106.79228854374526,10.842475286176308]]]}},{"type":"Feature","properties":{"KyHieuLoaiDat":"CONG","DienTich":1800,"TenChuSoHuu":"UBND TP. Thủ Đức","SoTo":"21","SoThua":"40","TenConDuong":"Đường Số 10","TenXaMoi":"Phường Tăng Nhơn Phú","GiaiDoanQuyHoach":"2021-2030","ThongTinQuyHoach":"Đất công cộng - Nhà văn hóa","DMMucDichSuDungDat":"Đất văn hóa"},"geometry":{"type":"Polygon","coordinates":[[[106.78948552296725,10.845446643709257],[106.79098370816092,10.845491837463259],[106.79109272047057,10.846519754823523],[106.78946885648588,10.846593288124902],[106.78958462874323,10.845309340997115]]]}},{"type":"Feature","properties":{"KyHieuLoaiDat":"CAY_XANH","DienTich":2500,"TenChuSoHuu":"Ban Quản lý Công viên","SoTo":"27","SoThua":"120","TenConDuong":"Đường Số 15","TenXaMoi":"Phường Tăng Nhơn Phú","GiaiDoanQuyHoach":"2021-2030","ThongTinQuyHoach":"Đất cây xanh - Vườn hoa","DMMucDichSuDungDat":"Đất cây xanh"},"geometry":{"type":"Polygon","coordinates":[[[106.79329275338809,10.845383619543004],[106.79472566592072,10.84538728736382],[106.79484435801427,10.846613531184772],[106.7932806885912,10.84658852840134],[106.79318446094935,10.845340230427514]]]}},{"type":"Feature","properties":{"KyHieuLoaiDat":"TM-DV","DienTich":1500,"TenChuSoHuu":"HTX Dịch vụ Tăng Nhơn Phú","SoTo":"26","SoThua":"22","TenConDuong":"Đường Số 5","TenXaMoi":"Phường Tăng Nhơn Phú","GiaiDoanQuyHoach":"2021-2030","ThongTinQuyHoach":"Đất thương mại dịch vụ","DMMucDichSuDungDat":"Đất thương mại dịch vụ"},"geometry":{"type":"Polygon","coordinates":[[[106.78896984817442,10.842920140050712],[106.79019902661429,10.842959951106806],[106.79011770325052,10.84398555089753],[106.78881192021262,10.843914695154137],[106.78888708070396,10.843099385035277]]]}},{"type":"Feature","properties":{"KyHieuLoaiDat":"ODT","DienTich":400,"TenChuSoHuu":"Vũ Đức Thắng","SoTo":"28","SoThua":"85","TenConDuong":"Đường Số 1","TenXaMoi":"Phường Tăng Nhơn Phú","GiaiDoanQuyHoach":"2025-2030","ThongTinQuyHoach":"Đất ở đô thị - QHPK mới","DMMucDichSuDungDat":"Đất ở tại đô thị"},"geometry":{"type":"Polygon","coordinates":[[[106.78617934362198,10.846412721402471],[106.78770689368221,10.846367856539622],[106.78782340728678,10.84769243046021],[106.78634854576194,10.847553321201742],[106.78616948968495,10.84640799805732]]]}},{"type":"Feature","properties":{"KyHieuLoaiDat":"ODT","DienTich":210,"TenChuSoHuu":"Trịnh Thị Ngọc","SoTo":"28","SoThua":"87","TenConDuong":"Đường Số 1","TenXaMoi":"Phường Tăng Nhơn Phú","GiaiDoanQuyHoach":"2021-2025","ThongTinQuyHoach":"Đất ở đô thị - QHPK 1/2000","DMMucDichSuDungDat":"Đất ở tại đô thị"},"geometry":{"type":"Polygon","coordinates":[[[106.78632064151844,10.845931991558583],[106.78723153914463,10.846006552732812],[106.78730982368408,10.847040195410655],[106.78633767596631,10.847016370763606],[106.78622371812412,10.846080262170366]]]}}]}